$$SOE
2460154.500000000, A.D. 2023-Jul-29 00:00:00.0000, 2.877588414177458E+08, 2.529662227963232E+08, 4.931480008327931E+06,
2460161.500000000, A.D. 2023-Aug-05 00:00:00.0000, 2.795801109203024E+08, 2.603444113044038E+08, 6.185314490055278E+06,
2460168.500000000, A.D. 2023-Aug-12 00:00:00.0000, 2.711583035492214E+08, 2.674961007241129E+08, 7.433747357551947E+06,
2460175.500000000, A.D. 2023-Aug-19 00:00:00.0000, 2.624986745681194E+08, 2.744130221944392E+08, 8.675635117703304E+06,
2460182.500000000, A.D. 2023-Aug-26 00:00:00.0000, 2.536067728257745E+08, 2.810869579055035E+08, 9.909819594839498E+06,
2460189.500000000, A.D. 2023-Sep-02 00:00:00.0000, 2.444884463286864E+08, 2.875097508781319E+08, 1.113512849025452E+07,
2460196.500000000, A.D. 2023-Sep-09 00:00:00.0000, 2.351498476365845E+08, 2.936733152282352E+08, 1.235037599969123E+07,
2460203.500000000, A.D. 2023-Sep-16 00:00:00.0000, 2.255974392084371E+08, 2.995696468747247E+08, 1.355436347310640E+07,
2460210.500000000, A.D. 2023-Sep-23 00:00:00.0000, 2.158379990731475E+08, 3.051908349938253E+08, 1.474588010659575E+07,
2460217.500000000, A.D. 2023-Sep-30 00:00:00.0000, 2.058786264421252E+08, 3.105290754221248E+08, 1.592370379927754E+07,
2460224.500000000, A.D. 2023-Oct-07 00:00:00.0000, 1.957267448593504E+08, 3.155766854692879E+08, 1.708660235072125E+07,
2460231.500000000, A.D. 2023-Oct-14 00:00:00.0000, 1.853901038732747E+08, 3.203261168338980E+08, 1.823333463758124E+07,
2460238.500000000, A.D. 2023-Oct-21 00:00:00.0000, 1.748767824080402E+08, 3.247699682294748E+08, 1.936265160834081E+07,
2460245.500000000, A.D. 2023-Oct-28 00:00:00.0000, 1.641951923502100E+08, 3.289009999729942E+08, 2.047329741440159E+07,
2460252.500000000, A.D. 2023-Nov-04 00:00:00.0000, 1.533540810326494E+08, 3.327121497574689E+08, 2.156401073263554E+07,
2460259.500000000, A.D. 2023-Nov-11 00:00:00.0000, 1.423625327250387E+08, 3.361965490037275E+08, 2.263352621833609E+07,
2460266.500000000, A.D. 2023-Nov-18 00:00:00.0000, 1.312299692856882E+08, 3.393475397199437E+08, 2.368057606768611E+07,
2460273.500000000, A.D. 2023-Nov-25 00:00:00.0000, 1.199661499844348E+08, 3.421586918765538E+08, 2.470389168884724E+07,
2460280.500000000, A.D. 2023-Dec-02 00:00:00.0000, 1.085811704601941E+08, 3.446238212599149E+08, 2.570220548090872E+07,
2460287.500000000, A.D. 2023-Dec-09 00:00:00.0000, 9.708546082237089E+07, 3.467370077103481E+08, 2.667425271013702E+07,
2460294.500000000, A.D. 2023-Dec-16 00:00:00.0000, 8.548978311065048E+07, 3.484926137142453E+08, 2.761877345849451E+07,
2460301.500000000, A.D. 2023-Dec-23 00:00:00.0000, 7.380522838633206E+07, 3.498853039907397E+08, 2.853451466832593E+07,
2460308.500000000, A.D. 2023-Dec-30 00:00:00.0000, 6.204321204224109E+07, 3.509100670697935E+08, 2.942023249079096E+07,
2460315.500000000, A.D. 2024-Jan-06 00:00:00.0000, 5.021546548574281E+07, 3.515622364345760E+08, 3.027469490547907E+07,
2460322.500000000, A.D. 2024-Jan-13 00:00:00.0000, 3.833402729064658E+07, 3.518375093533885E+08, 3.109668417117585E+07,
2460329.500000000, A.D. 2024-Jan-20 00:00:00.0000, 2.641123497639744E+07, 3.517319664196985E+08, 3.188499924603498E+07,
2460336.500000000, A.D. 2024-Jan-27 00:00:00.0000, 1.445971532811888E+07, 3.512420923680772E+08, 3.263845841251415E+07,
2460343.500000000, A.D. 2024-Feb-03 00:00:00.0000, 2.492372771660449E+06, 3.503647971201801E+08, 3.335590206350304E+07,
2460350.500000000, A.D. 2024-Feb-10 00:00:00.0000, -9.477623972029585E+06, 3.490974366651505E+08, 3.403619559396519E+07,
2460357.500000000, A.D. 2024-Feb-17 00:00:00.0000, -2.143685686096760E+07, 3.474378336697536E+08, 3.467823237822637E+07,
2460364.500000000, A.D. 2024-Feb-24 00:00:00.0000, -3.337167513763393E+07, 3.453842977121117E+08, 3.528093682165626E+07,
2460371.500000000, A.D. 2024-Mar-02 00:00:00.0000, -4.526821356681027E+07, 3.429356449777339E+08, 3.584326747089091E+07,
2460378.500000000, A.D. 2024-Mar-09 00:00:00.0000, -5.711241218734766E+07, 3.400912172188544E+08, 3.636422015288840E+07,
2460385.500000000, A.D. 2024-Mar-16 00:00:00.0000, -6.889003719234648E+07, 3.368509000318735E+08, 3.684283110958748E+07,
2460392.500000000, A.D. 2024-Mar-23 00:00:00.0000, -8.058670303976589E+07, 3.332151414161665E+08, 3.727818021419971E+07,
2460399.500000000, A.D. 2024-Mar-30 00:00:00.0000, -9.218789801670411E+07, 3.291849704399481E+08, 3.766939445708758E+07,
2460406.500000000, A.D. 2024-Apr-06 00:00:00.0000, -1.036790129645061E+08, 3.247620124849800E+08, 3.801565138447513E+07,
2460413.500000000, A.D. 2024-Apr-13 00:00:00.0000, -1.150453695712270E+08, 3.199485017409445E+08, 3.831618221406041E+07,
2460420.500000000, A.D. 2024-Apr-20 00:00:00.0000, -1.262722491263589E+08, 3.147472934754838E+08, 3.857027491552383E+07,
2460427.500000000, A.D. 2024-Apr-27 00:00:00.0000, -1.373449231727436E+08, 3.091618753657833E+08, 3.877727732900093E+07,
2460434.500000000, A.D. 2024-May-04 00:00:00.0000, -1.482486858699075E+08, 3.031963770324863E+08, 3.893660023450544E+07,
2460441.500000000, A.D. 2024-May-11 00:00:00.0000, -1.589688877174123E+08, 2.968555775243345E+08, 3.904772032031055E+07,
2460448.500000000, A.D. 2024-May-18 00:00:00.0000, -1.694909704261406E+08, 2.901449106336474E+08, 3.911018302242319E+07,
2460455.500000000, A.D. 2024-May-25 00:00:00.0000, -1.798005027657010E+08, 2.830704679034832E+08, 3.912360520999900E+07,
2460462.500000000, A.D. 2024-Jun-01 00:00:00.0000, -1.898832171646995E+08, 2.756389991482742E+08, 3.908767768425974E+07,
2460469.500000000, A.D. 2024-Jun-08 00:00:00.0000, -1.997250466388316E+08, 2.678579103573789E+08, 3.900216744450520E+07,
2460476.500000000, A.D. 2024-Jun-15 00:00:00.0000, -2.093121614551080E+08, 2.597352594343047E+08, 3.886691970784886E+07,
2460483.500000000, A.D. 2024-Jun-22 00:00:00.0000, -2.186310063351828E+08, 2.512797508737769E+08, 3.868185985091263E+07,
2460490.500000000, A.D. 2024-Jun-29 00:00:00.0000, -2.276683401060967E+08, 2.425007275082499E+08, 3.844699530079815E+07,
2460497.500000000, A.D. 2024-Jul-06 00:00:00.0000, -2.364112749194361E+08, 2.334081568227137E+08, 3.816241691218090E+07,
2460504.500000000, A.D. 2024-Jul-13 00:00:00.0000, -2.448473128474991E+08, 2.240126146420207E+08, 3.782829986412817E+07,
2460511.500000000, A.D. 2024-Jul-20 00:00:00.0000, -2.529643816037390E+08, 2.143252673482971E+08, 3.744490433671473E+07,
2460518.500000000, A.D. 2024-Jul-27 00:00:00.0000, -2.607508697985375E+08, 2.043578517019173E+08, 3.701257593488812E+07,
2460525.500000000, A.D. 2024-Aug-03 00:00:00.0000, -2.681956612162409E+08, 1.941226519412079E+08, 3.653174579247637E+07,
2460532.500000000, A.D. 2024-Aug-10 00:00:00.0000, -2.752881677202047E+08, 1.836324742350052E+08, 3.600293033409772E+07,
2460539.500000000, A.D. 2024-Aug-17 00:00:00.0000, -2.820183605209215E+08, 1.729006186221023E+08, 3.542673068975346E+07,
2460546.500000000, A.D. 2024-Aug-24 00:00:00.0000, -2.883767995671000E+08, 1.619408485560310E+08, 3.480383175734241E+07,
2460553.500000000, A.D. 2024-Aug-31 00:00:00.0000, -2.943546607386428E+08, 1.507673581552780E+08, 3.413500089870000E+07,
2460560.500000000, A.D. 2024-Sep-07 00:00:00.0000, -2.999437602828580E+08, 1.393947374638011E+08, 3.342108624930574E+07,
2460567.500000000, A.D. 2024-Sep-14 00:00:00.0000, -3.051365762331641E+08, 1.278379369118544E+08, 3.266301472136398E+07,
2460574.500000000, A.D. 2024-Sep-21 00:00:00.0000, -3.099262686874200E+08, 1.161122315994084E+08, 3.186178992952605E+07,
2460581.500000000, A.D. 2024-Sep-28 00:00:00.0000, -3.143066993088827E+08, 1.042331824025774E+08, 3.101848983330525E+07,
2460588.500000000, A.D. 2024-Oct-05 00:00:00.0000, -3.182724462724920E+08, 9.221659414812432E+07, 3.013426377546937E+07,
2460595.500000000, A.D. 2024-Oct-12 00:00:00.0000, -3.218188149272746E+08, 8.007847408089510E+07, 2.921032921047675E+07,
2460602.500000000, A.D. 2024-Oct-19 00:00:00.0000, -3.249418458728054E+08, 6.783499060177857E+07, 2.824796828179418E+07,
2460609.500000000, A.D. 2024-Oct-26 00:00:00.0000, -3.276383204602633E+08, 5.550243173363152E+07, 2.724852420878700E+07,
2460616.500000000, A.D. 2024-Nov-02 00:00:00.0000, -3.299057634599570E+08, 4.309716342704064E+07, 2.621339747221560E+07,
2460623.500000000, A.D. 2024-Nov-09 00:00:00.0000, -3.317424428217345E+08, 3.063558798149262E+07, 2.514404181711841E+07,
2460630.500000000, A.D. 2024-Nov-16 00:00:00.0000, -3.331473665512785E+08, 1.813410283011768E+07, 2.404196009778543E+07,
2460637.500000000, A.D. 2024-Nov-23 00:00:00.0000, -3.341202767290046E+08, 5.609059877208857E+06, 2.290869998432131E+07,
2460644.500000000, A.D. 2024-Nov-30 00:00:00.0000, -3.346616405596949E+08, -6.923274426278410E+06, 2.174584953654895E+07,
2460651.500000000, A.D. 2024-Dec-07 00:00:00.0000, -3.347726381502022E+08, -1.944675763444678E+07, 2.055503266958012E+07,
2460658.500000000, A.D. 2024-Dec-14 00:00:00.0000, -3.344551478385801E+08, -3.194540706363231E+07, 1.933790470234867E+07,
2460665.500000000, A.D. 2024-Dec-21 00:00:00.0000, -3.337117315462003E+08, -4.440343381729975E+07, 1.809614812788123E+07,
2460672.500000000, A.D. 2024-Dec-28 00:00:00.0000, -3.325456183525616E+08, -5.680527788596800E+07, 1.683146820882204E+07,
2460679.500000000, A.D. 2025-Jan-04 00:00:00.0000, -3.309606838771372E+08, -6.913564180144861E+07, 1.554558838025807E+07,
2460686.500000000, A.D. 2025-Jan-11 00:00:00.0000, -3.289614274718621E+08, -8.137952106177191E+07, 1.424024578692970E+07,
2460693.500000000, A.D. 2025-Jan-18 00:00:00.0000, -3.265529483309543E+08, -9.352223214846431E+07, 1.291718698628452E+07,
2460700.500000000, A.D. 2025-Jan-25 00:00:00.0000, -3.237409204753579E+08, -1.055494385357379E+08, 1.157816377714885E+07,
2460707.500000000, A.D. 2025-Feb-01 00:00:00.0000, -3.205315666260748E+08, -1.174471746643493E+08, 1.022492915350259E+07,
2460714.500000000, A.D. 2025-Feb-08 00:00:00.0000, -3.169316311084938E+08, -1.292018678221465E+08, 8.859233396944068E+06,
2460721.500000000, A.D. 2025-Feb-15 00:00:00.0000, -3.129483519553232E+08, -1.408003579332109E+08, 7.482820318714514E+06,
$$EOE